              M50 Cartesian                         J2K Cartesian  
    -----------------------------------       --------------------------------
     X    =       13614342.05                 X    =         4114004.70
     Y    =        2838024.83  feet           Y    =          911235.06  meter
     Z    =       17334374.85                 Z    =         5303589.04
     XDOT =      -5246.206001                 XDOT =       -1682.972783
     YDOT =      24619.722436  feet/sec       YDOT =        7485.740554  meter/sec
     ZDOT =         91.458713                 ZDOT =          19.904572
 
              TDR Cartesian                         TDR Cartesian  
    -----------------------------------       --------------------------------
     X    =       -6330029.44                 X    =        -1929392.97
     Y    =       12260172.00  feet           Y    =         3736900.43  meter
     Z    =       17421370.65                 Z    =         5310033.78
     XDOT =     -21442.115633                 XDOT =       -6535.556845
     YDOT =     -11146.829936  feet/sec       YDOT =       -3397.553765  meter/sec
     ZDOT =         55.446227                 ZDOT =          16.900010
  
  
    The mean element set is posted at the UTC for which position is
    just north of the next ascending node relative to the above
    vector time
 
 
    TWO LINE MEAN ELEMENT SET
  
    ISS
    1 25544U 98067A   16124.14271543  .00016717  00000-0  10270-3 0  9042
    2 25544  51.6408 282.7390 0001797  69.3939 290.7406 15.54418028 37972
  
  
    Satellite: ISS
    Catalog Number: 25544
    Epoch time:      16124.14271543   =   yrday.fracday
    Element set:     904
    Inclination:       51.6408  deg
    RA of node:       282.7390  deg
    Eccentricity:     .0001797     
    Arg of perigee:    69.3939  deg
    Mean anomaly:     290.7406  deg
    Mean motion:   15.54418028  rev/day
    Decay rate:    1.67170E-04  rev/day^2
    Epoch rev:            3797
    Checksum:              328
 
 
    Coasting Arc #6 (Orbit 3811)
    ---------------------------------------
 
    Vector Time (GMT): 2016/125/02:16:00.000
    Vector Time (MET): N/A
    Weight (LBS)     : 945238.6
 
              M50 Cartesian                         M50 Keplerian  
    -----------------------------------       --------------------------------
     X    =       -3696714.72                 A    =         6777843.43  meter
     Y    =       -2728492.98  meter          E    =           .0014369
     Z    =       -4995953.26                 I    =           51.25992
     XDOT =       2475.796748                 Wp   =          101.11537
     YDOT =      -6971.499703  meter/sec      RA   =          277.16730  deg
     ZDOT =       1977.610918                 TA   =          188.20774
                                              MA   =          188.23127
                                              Ha   =            221.174  n.mi
                                              Hp   =            213.453
 
              M50 Cartesian                         J2K Cartesian  
    -----------------------------------       --------------------------------
     X    =      -12128329.12                 X    =        -3641660.69
     Y    =       -8951748.63  feet           Y    =        -2769524.51  meter
     Z    =      -16390922.76                 Z    =        -5013777.42
     XDOT =       8122.692743                 XDOT =        2543.963253
     YDOT =     -22872.374355  feet/sec       YDOT =       -6943.432467  meter/sec
     ZDOT =       6488.224796                 ZDOT =        1989.803794
 
              TDR Cartesian                         TDR Cartesian  
    -----------------------------------       --------------------------------
     X    =       11669372.72                 X    =         3556824.81
     Y    =       -9408999.31  feet           Y    =        -2867862.99  meter
     Z    =      -16467816.86                 Z    =        -5019390.58
     XDOT =      19446.717066                 XDOT =        5927.359362
     YDOT =      12679.985695  feet/sec       YDOT =        3864.859640  meter/sec
     ZDOT =       6542.454927                 ZDOT =        1994.140262
  
  
    The mean element set is posted at the UTC for which position is
    just north of the next ascending node relative to the above
    vector time
 
 
    TWO LINE MEAN ELEMENT SET
  
    ISS
    1 25544U 98067A   16125.10707196  .00016717  00000-0  10270-3 0  9058
    2 25544  51.6407 277.9293 0001778  74.2200 285.9149 15.54413351 38126
  
  
    Satellite: ISS
    Catalog Number: 25544
    Epoch time:      16125.10707196   =   yrday.fracday
    Element set:     905
    Inclination:       51.6407  deg
    RA of node:       277.9293  deg
    Eccentricity:     .0001778     
    Arg of perigee:    74.2200  deg
    Mean anomaly:     285.9149  deg
    Mean motion:   15.54413351  rev/day
    Decay rate:    1.67170E-04  rev/day^2
    Epoch rev:            3812
    Checksum:              308
 
 
    Coasting Arc #7 (Orbit 3827)
    ---------------------------------------
 
    Vector Time (GMT): 2016/126/02:16:00.000
    Vector Time (MET): N/A
    Weight (LBS)     : 945238.6
 
              M50 Cartesian                         M50 Keplerian  
    -----------------------------------       --------------------------------
     X    =        3126458.93                 A    =         6781236.22  meter
     Y    =        4396289.88  meter          E    =           .0012204
     Z    =        4100674.11                 I    =           51.26931
     XDOT =      -3246.519894                 Wp   =           76.07542
     YDOT =       5839.098557  meter/sec      RA   =          272.14571  deg
     ZDOT =      -3772.450634                 TA   =           53.05214
                                              MA   =           52.94045
                                              Ha   =            221.062  n.mi
                                              Hp   =            213.559
 
              M50 Cartesian                         J2K Cartesian  
    -----------------------------------       --------------------------------
     X    =       10257411.18                 X    =         3057146.44
     Y    =       14423523.24  feet           Y    =         4430864.62  meter
     Z    =       13453655.21                 Z    =         4115693.47
     XDOT =     -10651.311988                 XDOT =       -3293.247553
     YDOT =      19157.147498  feet/sec       YDOT =        5802.532416  meter/sec
     ZDOT =     -12376.806541                 ZDOT =       -3788.335424
 
              TDR Cartesian                         TDR Cartesian  
    -----------------------------------       --------------------------------
     X    =      -16395936.73                 X    =        -4997481.52
     Y    =        6533638.61  feet           Y    =         1991453.05  meter
     Z    =       13518068.30                 Z    =         4120307.22
     XDOT =     -15692.710581                 XDOT =       -4783.138185
     YDOT =     -13544.352597  feet/sec       YDOT =       -4128.318671  meter/sec
     ZDOT =     -12446.852123                 ZDOT =       -3793.800527
  
  
    The mean element set is posted at the UTC for which position is
    just north of the next ascending node relative to the above
    vector time
 
 
    TWO LINE MEAN ELEMENT SET
  
    ISS
    1 25544U 98067A   16126.13570986  .00016717  00000-0  10270-3 0  9068
    2 25544  51.6417 272.7994 0001736  74.7116 285.4228 15.54432508 38288
  
  
    Satellite: ISS
    Catalog Number: 25544
    Epoch time:      16126.13570986   =   yrday.fracday
    Element set:     906
    Inclination:       51.6417  deg
    RA of node:       272.7994  deg
    Eccentricity:     .0001736     
    Arg of perigee:    74.7116  deg
    Mean anomaly:     285.4228  deg
    Mean motion:   15.54432508  rev/day
    Decay rate:    1.67170E-04  rev/day^2
    Epoch rev:            3828
    Checksum:              330
 
 
    Coasting Arc #8 (Orbit 3842)
    ---------------------------------------
 
    Vector Time (GMT): 2016/127/02:16:00.000
    Vector Time (MET): N/A
    Weight (LBS)     : 945238.6
 
              M50 Cartesian                         M50 Keplerian  
    -----------------------------------       --------------------------------
     X    =       -2494077.29                 A    =         6785187.75  meter
     Y    =       -5678314.08  meter          E    =           .0006526
     Z    =       -2753212.54                 I    =           51.28214
     XDOT =       3892.138403                 Wp   =           63.55150
     YDOT =      -4181.091046  meter/sec      RA   =          267.13507  deg
     ZDOT =       5109.692901                 TA   =          265.11425
                                              MA   =          265.18876
                                              Ha   =            221.147  n.mi
                                              Hp   =            213.497
 
              M50 Cartesian                         J2K Cartesian  
    -----------------------------------       --------------------------------
     X    =       -8182668.28                 X    =        -2417021.38
     Y    =      -18629639.38  feet           Y    =        -5705773.70  meter
     Z    =       -9032849.53                 Z    =        -2765141.18
     XDOT =      12769.482948                 XDOT =        3913.781885
     YDOT =     -13717.490307  feet/sec       YDOT =       -4137.445485  meter/sec
     ZDOT =      16764.084320                 ZDOT =        5128.652984
 
